{"type": "FeatureCollection", "features": [{"type": "Feature", "properties": {"description": "South Atlantic Anomaly: |B| = 28000 nT contour at the Earth's surface, IGRF-14, epoch 2028.0"}, "geometry": {"type": "Polygon", "coordinates": [[[-16.75, -57.51], [-17.5, -57.47], [-18.5, -57.41], [-19.5, -57.35], [-20.5, -57.28], [-21.25, -57.22], [-22.25, -57.14], [-23.25, -57.06], [-24.0, -56.99], [-25.0, -56.9], [-26.0, -56.81], [-26.75, -56.74], [-27.75, -56.63], [-28.75, -56.53], [-29.5, -56.45], [-30.5, -56.34], [-31.32, -56.25], [-32.25, -56.14], [-33.25, -56.03], [-34.0, -55.94], [-35.0, -55.82], [-35.75, -55.73], [-36.75, -55.6], [-37.58, -55.5], [-38.5, -55.38], [-39.5, -55.25], [-40.25, -55.16], [-41.25, -55.02], [-42.0, -54.92], [-43.0, -54.78], [-43.75, -54.68], [-44.75, -54.54], [-45.5, -54.43], [-46.5, -54.28], [-47.25, -54.17], [-48.25, -54.02], [-49.0, -53.9], [-49.92, -53.75], [-50.75, -53.61], [-51.5, -53.49], [-52.5, -53.31], [-53.25, -53.18], [-54.2, -53.0], [-55.0, -52.85], [-55.75, -52.7], [-56.73, -52.5], [-57.5, -52.34], [-58.25, -52.17], [-59.02, -52.0], [-60.0, -51.77], [-60.75, -51.59], [-61.5, -51.4], [-62.25, -51.2], [-63.0, -51.0], [-63.89, -50.75], [-64.75, -50.5], [-65.5, -50.27], [-66.25, -50.03], [-67.0, -49.79], [-67.75, -49.53], [-68.5, -49.26], [-69.22, -49.0], [-69.87, -48.75], [-70.5, -48.5], [-71.25, -48.19], [-72.0, -47.87], [-72.75, -47.54], [-73.38, -47.25], [-74.0, -46.95], [-74.75, -46.58], [-75.39, -46.25], [-76.0, -45.92], [-76.75, -45.5], [-77.25, -45.22], [-78.0, -44.77], [-78.5, -44.46], [-79.21, -44.0], [-79.75, -43.64], [-80.32, -43.25], [-81.0, -42.77], [-81.5, -42.4], [-82.03, -42.0], [-82.67, -41.5], [-83.25, -41.03], [-83.75, -40.61], [-84.25, -40.19], [-84.75, -39.75], [-85.3, -39.25], [-85.84, -38.75], [-86.36, -38.25], [-86.87, -37.75], [-87.37, -37.25], [-87.86, -36.75], [-88.33, -36.25], [-88.8, -35.75], [-89.26, -35.25], [-89.75, -34.71], [-90.25, -34.15], [-90.75, -33.57], [-91.25, -33.0], [-91.67, -32.5], [-92.09, -32.0], [-92.51, -31.5], [-93.0, -30.91], [-93.5, -30.3], [-93.95, -29.75], [-94.35, -29.25], [-94.75, -28.75], [-95.25, -28.13], [-95.75, -27.5], [-96.15, -27.0], [-96.55, -26.5], [-97.0, -25.93], [-97.5, -25.29], [-97.93, -24.75], [-98.32, -24.25], [-98.75, -23.7], [-99.25, -23.05], [-99.68, -22.5], [-100.06, -22.0], [-100.5, -21.42], [-101.0, -20.76], [-101.38, -20.25], [-101.75, -19.74], [-102.25, -19.04], [-102.62, -18.5], [-103.0, -17.94], [-103.45, -17.25], [-103.75, -16.75], [-104.18, -16.0], [-104.5, -15.38], [-104.79, -14.75], [-105.08, -14.0], [-105.3, -13.25], [-105.45, -12.25], [-105.41, -11.25], [-105.21, -10.5], [-104.85, -9.75], [-104.5, -9.25], [-104.0, -8.7], [-103.5, -8.25], [-102.83, -7.75], [-102.25, -7.38], [-101.57, -7.0], [-101.0, -6.71], [-100.25, -6.37], [-99.5, -6.05], [-98.75, -5.76], [-98.04, -5.5], [-97.31, -5.25], [-96.55, -5.0], [-95.75, -4.75], [-95.0, -4.53], [-94.25, -4.31], [-93.5, -4.1], [-92.75, -3.89], [-92.0, -3.69], [-91.25, -3.5], [-90.28, -3.25], [-89.5, -3.05], [-88.75, -2.87], [-88.0, -2.68], [-87.24, -2.5], [-86.25, -2.26], [-85.5, -2.08], [-84.75, -1.91], [-84.0, -1.73], [-83.02, -1.5], [-82.25, -1.32], [-81.5, -1.15], [-80.75, -0.97], [-79.79, -0.75], [-79.0, -0.57], [-78.25, -0.39], [-77.5, -0.22], [-76.54, 0.0], [-75.75, 0.18], [-75.0, 0.35], [-74.25, 0.53], [-73.27, 0.75], [-72.5, 0.93], [-71.75, 1.1], [-71.0, 1.27], [-70.0, 1.49], [-69.25, 1.66], [-68.5, 1.83], [-67.73, 2.0], [-66.75, 2.22], [-66.0, 2.38], [-65.25, 2.54], [-64.26, 2.75], [-63.5, 2.91], [-62.75, 3.06], [-61.81, 3.25], [-61.0, 3.41], [-60.25, 3.55], [-59.25, 3.73], [-58.5, 3.86], [-57.7, 4.0], [-56.75, 4.15], [-56.0, 4.26], [-55.0, 4.4], [-54.21, 4.5], [-53.25, 4.61], [-52.25, 4.71], [-51.5, 4.77], [-50.5, 4.83], [-49.5, 4.88], [-48.5, 4.9], [-47.5, 4.91], [-46.5, 4.88], [-45.5, 4.84], [-44.5, 4.76], [-43.75, 4.69], [-42.75, 4.56], [-42.0, 4.44], [-41.0, 4.26], [-40.25, 4.1], [-39.5, 3.93], [-38.75, 3.73], [-37.98, 3.5], [-37.22, 3.25], [-36.5, 3.0], [-35.75, 2.71], [-35.0, 2.39], [-34.25, 2.05], [-33.63, 1.75], [-33.0, 1.42], [-32.25, 1.01], [-31.75, 0.72], [-31.0, 0.26], [-30.5, -0.06], [-29.85, -0.5], [-29.25, -0.92], [-28.75, -1.29], [-28.14, -1.75], [-27.5, -2.25], [-27.0, -2.65], [-26.5, -3.07], [-25.99, -3.5], [-25.41, -4.0], [-24.84, -4.5], [-24.28, -5.0], [-23.75, -5.48], [-23.25, -5.93], [-22.75, -6.39], [-22.25, -6.84], [-21.75, -7.3], [-21.25, -7.76], [-20.71, -8.25], [-20.16, -8.75], [-19.6, -9.25], [-19.03, -9.75], [-18.5, -10.22], [-18.0, -10.64], [-17.5, -11.07], [-16.98, -11.5], [-16.36, -12.0], [-15.75, -12.48], [-15.25, -12.86], [-14.72, -13.25], [-14.02, -13.75], [-13.5, -14.11], [-12.91, -14.5], [-12.25, -14.92], [-11.7, -15.25], [-11.0, -15.65], [-10.36, -16.0], [-9.75, -16.32], [-9.0, -16.68], [-8.3, -17.0], [-7.72, -17.25], [-7.0, -17.54], [-6.25, -17.82], [-5.5, -18.08], [-4.75, -18.31], [-4.0, -18.53], [-3.18, -18.75], [-2.25, -18.97], [-1.5, -19.13], [-0.75, -19.28], [0.25, -19.46], [1.0, -19.57], [2.0, -19.71], [2.75, -19.81], [3.75, -19.92], [4.55, -20.0], [5.5, -20.09], [6.5, -20.17], [7.5, -20.25], [8.25, -20.3], [9.25, -20.37], [10.25, -20.45], [11.0, -20.5], [12.0, -20.58], [13.0, -20.67], [13.81, -20.75], [14.75, -20.85], [15.75, -20.98], [16.5, -21.09], [17.44, -21.25], [18.25, -21.41], [19.0, -21.57], [19.75, -21.76], [20.59, -22.0], [21.36, -22.25], [22.03, -22.5], [22.75, -22.8], [23.5, -23.16], [24.12, -23.5], [24.75, -23.88], [25.28, -24.25], [25.93, -24.75], [26.5, -25.25], [27.0, -25.75], [27.44, -26.25], [27.84, -26.75], [28.25, -27.33], [28.66, -28.0], [29.0, -28.64], [29.28, -29.25], [29.57, -30.0], [29.82, -30.75], [30.01, -31.5], [30.2, -32.5], [30.3, -33.25], [30.37, -34.25], [30.38, -35.25], [30.33, -36.25], [30.25, -37.0], [30.09, -38.0], [29.93, -38.75], [29.73, -39.5], [29.5, -40.26], [29.23, -41.0], [28.93, -41.75], [28.58, -42.5], [28.25, -43.14], [27.91, -43.75], [27.5, -44.41], [27.11, -45.0], [26.75, -45.5], [26.25, -46.14], [25.75, -46.74], [25.29, -47.25], [24.8, -47.75], [24.29, -48.25], [23.75, -48.74], [23.25, -49.17], [22.75, -49.57], [22.19, -50.0], [21.5, -50.5], [21.0, -50.84], [20.35, -51.25], [19.75, -51.61], [19.07, -52.0], [18.5, -52.31], [17.75, -52.69], [17.1, -53.0], [16.5, -53.27], [15.75, -53.6], [15.0, -53.9], [14.25, -54.18], [13.5, -54.45], [12.75, -54.71], [12.0, -54.94], [11.25, -55.17], [10.5, -55.38], [9.75, -55.58], [9.0, -55.76], [8.0, -55.99], [7.25, -56.16], [6.5, -56.31], [5.5, -56.49], [4.75, -56.62], [3.95, -56.75], [3.0, -56.89], [2.17, -57.0], [1.25, -57.11], [0.25, -57.22], [-0.5, -57.29], [-1.5, -57.38], [-2.5, -57.46], [-3.25, -57.51], [-4.25, -57.56], [-5.25, -57.61], [-6.25, -57.65], [-7.25, -57.67], [-8.25, -57.69], [-9.25, -57.7], [-10.25, -57.7], [-11.25, -57.69], [-12.25, -57.67], [-13.25, -57.65], [-14.25, -57.62], [-15.25, -57.58], [-16.25, -57.54], [-16.75, -57.51]]]}}]}